NORAD_CAT_ID,OBJECT_NAME,OBJECT_TYPE,EPOCH,MEAN_MOTION,ECCENTRICITY,INCLINATION,RA_OF_ASC_NODE,ARG_OF_PERICENTER,MEAN_ANOMALY,BSTAR,MEAN_MOTION_DOT,MEAN_MOTION_DDOT,TLE_LINE0,TLE_LINE1,TLE_LINE2,SEMIMAJOR_AXIS,PERIOD,APOGEE,PERIGEE,DECAYED
53543.0,STARLINK-4297,PAYLOAD,2024-06-12 20:46:37,15.08830873,0.0001577,53.2202,34.0313,92.8931,267.2242,1.2224e-05,-9.3e-07,0.0,0 STARLINK-4297,1 53543U 22101S   24164.86571682 -.00000093  00000-0  12224-4 0  9994,2 53543  53.2202  34.0313 0001577  92.8931 267.2242 15.08830873100461,6917.908,95.438,540.864,538.682,0.0
53543.0,STARLINK-4297,PAYLOAD,2024-06-12 22:22:01,15.08834898,0.0001511,53.2199,33.7352,102.8903,257.2258,-4.6183e-05,-1.023e-05,0.0,0 STARLINK-4297,1 53543U 22101S   24164.93195640 -.00001023  00000-0 -46183-4 0  9994,2 53543  53.2199  33.7352 0001511 102.8903 257.2258 15.08834898101169,6917.896,95.438,540.806,538.716,0.0
53543.0,STARLINK-4297,PAYLOAD,2024-06-13 07:54:19,15.08837291,0.0001451,53.2187,31.946,95.9712,264.1445,-3.2346e-05,-8.03e-06,0.0,0 STARLINK-4297,1 53543U 22101S   24165.32939587 -.00000803  00000-0 -32346-4 0  9995,2 53543  53.2187  31.9460 0001451  95.9712 264.1445 15.08837291101221,6917.889,95.438,540.757,538.75,0.0
53543.0,STARLINK-4297,PAYLOAD,2024-06-13 20:37:24,15.08849138,0.0001505,53.2192,29.5686,108.3074,251.8082,-9.7708e-06,-4.44e-06,0.0,0 STARLINK-4297,1 53543U 22101S   24165.85930791 -.00000444  00000-0 -97708-5 0  9996,2 53543  53.2192  29.5686 0001505 108.3074 251.8082 15.08849138101302,6917.852,95.437,540.759,538.676,0.0
53543.0,STARLINK-4297,PAYLOAD,2024-06-14 07:45:06,15.08845574,0.0001352,53.2186,27.4855,94.9886,265.1261,-4.1022e-06,-3.53e-06,0.0,0 STARLINK-4297,1 53543U 22101S   24166.32298858 -.00000353  00000-0 -41022-5 0  9997,2 53543  53.2186  27.4855 0001352  94.9886 265.1261 15.08845574101375,6917.863,95.437,540.664,538.793,0.0
53543.0,STARLINK-4297,PAYLOAD,2024-06-14 22:03:35,15.08831068,0.0001379,53.2186,24.8083,88.0938,272.0212,4.083e-05,3.62e-06,0.0,0 STARLINK-4297,1 53543U 22101S   24166.91915962  .00000362  00000-0  40830-4 0  9997,2 53543  53.2186  24.8083 0001379  88.0938 272.0212 15.08831068101466,6917.908,95.438,540.727,538.819,0.0
53543.0,STARLINK-4297,PAYLOAD,2024-06-15 07:35:53,15.0883662,0.000132,53.2182,23.0237,87.9513,272.1631,5.8206e-05,6.38e-06,0.0,0 STARLINK-4297,1 53543U 22101S   24167.31659688  .00000638  00000-0  58206-4 0  9994,2 53543  53.2182  23.0237 0001320  87.9513 272.1631 15.08836620101529,6917.891,95.438,540.669,538.843,0.0
53543.0,STARLINK-4297,PAYLOAD,2024-06-15 21:54:21,15.08850223,0.0001249,53.2178,20.3461,80.9624,279.151,6.0777e-05,6.8e-06,0.0,0 STARLINK-4297,1 53543U 22101S   24167.91274852  .00000680  00000-0  60777-4 0  9999,2 53543  53.2178  20.3461 0001249  80.9624 279.1510 15.08850223101617,6917.849,95.437,540.578,538.85,0.0
53543.0,STARLINK-4297,PAYLOAD,2024-06-16 07:26:40,15.08845267,0.0001329,53.2185,18.5612,84.194,275.9204,4.2747e-05,3.93e-06,0.0,0 STARLINK-4297,1 53543U 22101S   24168.31019020  .00000393  00000-0  42747-4 0  9996,2 53543  53.2185  18.5612 0001329  84.1940 275.9204 15.08845267101670,6917.864,95.437,540.649,538.81,0.0
53543.0,STARLINK-4297,PAYLOAD,2024-06-16 20:09:45,15.08837873,0.0001258,53.2184,16.1815,91.7804,268.3332,0.00011828,1.595e-05,0.0,0 STARLINK-4297,1 53543U 22101S   24168.84011266  .00001595  00000-0  11828-3 0  9998,2 53543  53.2184  16.1815 0001258  91.7804 268.3332 15.08837873101753,6917.887,95.438,540.622,538.882,0.0
53543.0,STARLINK-4297,PAYLOAD,2024-06-17 20:00:33,15.0884087,0.0001378,53.2186,11.722,89.6664,270.4486,-5.2483e-05,-1.123e-05,0.0,0 STARLINK-4297,1 53543U 22101S   24169.83371693 -.00001123  00000-0 -52483-4 0  9993,2 53543  53.2186  11.7220 0001378  89.6664 270.4486 15.08840870101901,6917.878,95.437,540.696,538.789,0.0
53543.0,STARLINK-4297,PAYLOAD,2024-06-18 19:51:19,15.08847425,0.0001318,53.2186,7.2615,95.4375,264.6768,5.4757e-05,5.84e-06,0.0,0 STARLINK-4297,1 53543U 22101S   24170.82730815  .00000584  00000-0  54757-4 0  9993,2 53543  53.2186   7.2615 0001318  95.4375 264.6768 15.08847425101368,6917.858,95.437,540.634,538.811,0.0
53543.0,STARLINK-4297,PAYLOAD,2024-06-18 23:02:05,15.08843974,0.0001281,53.2186,6.6664,99.5347,260.579,0.00015682,2.209e-05,0.0,0 STARLINK-4297,1 53543U 22101S   24170.95978660  .00002209  00000-0  15682-3 0  9998,2 53543  53.2186   6.6664 0001281  99.5347 260.5790 15.08843974102072,6917.868,95.437,540.619,538.847,0.0
53543.0,STARLINK-4297,PAYLOAD,2024-06-19 19:42:07,15.0883423,0.0001285,53.2196,2.8004,85.688,274.4259,1.8358e-05,4e-08,0.0,0 STARLINK-4297,1 53543U 22101S   24171.82091974  .00000004  00000-0  18358-4 0  9994,2 53543  53.2196   2.8004 0001285  85.6880 274.4259 15.08834230101518,6917.898,95.438,540.652,538.874,0.0
53543.0,STARLINK-4297,PAYLOAD,2024-06-20 13:11:22,15.08836938,0.0001202,53.2195,359.5311,93.823,266.29,-4.9663e-05,-1.078e-05,0.0,0 STARLINK-4297,1 53543U 22101S   24172.54956331 -.00001078  00000-0 -49663-4 0  9998,2 53543  53.2195 359.5311 0001202  93.8230 266.2900 15.08836938102317,6917.89,95.438,540.586,538.923,0.0
53543.0,STARLINK-4297,PAYLOAD,2024-06-20 19:32:54,15.08839078,0.000122,53.219,358.3416,91.464,268.6492,-3.9748e-05,-9.2e-06,0.0,0 STARLINK-4297,1 53543U 22101S   24172.81452230 -.00000920  00000-0 -39748-4 0  9995,2 53543  53.2190 358.3416 0001220  91.4640 268.6492 15.08839078102358,6917.883,95.438,540.592,538.904,0.0
53543.0,STARLINK-4297,PAYLOAD,2024-06-21 11:26:46,15.08835294,0.000117,53.2191,355.3687,92.2249,267.8877,0.00010833,1.436e-05,0.0,0 STARLINK-4297,1 53543U 22101S   24173.47692165  .00001436  00000-0  10833-3 0  9995,2 53543  53.2191 355.3687 0001170  92.2249 267.8877 15.08835294101762,6917.895,95.438,540.569,538.95,0.0
53543.0,STARLINK-4297,PAYLOAD,2024-06-21 19:23:40,15.08847259,0.0001211,53.2192,353.8826,90.8481,269.265,0.00017759,2.54e-05,0.0,0 STARLINK-4297,1 53543U 22101S   24173.80811290  .00002540  00000-0  17759-3 0  9995,2 53543  53.2192 353.8826 0001211  90.8481 269.2650 15.08847259101814,6917.858,95.437,540.561,538.885,0.0
53543.0,STARLINK-4297,PAYLOAD,2024-06-21 22:34:26,15.08852844,0.0001183,53.2187,353.2871,93.158,266.9548,0.00022334,3.27e-05,0.0,0 STARLINK-4297,1 53543U 22101S   24173.94058768  .00003270  00000-0  22334-3 0  9999,2 53543  53.2187 353.2871 0001183  93.1580 266.9548 15.08852844102521,6917.841,95.437,540.525,538.888,0.0
53543.0,STARLINK-4297,PAYLOAD,2024-06-22 19:14:27,15.08859685,9.83e-05,53.2187,349.4123,106.7897,253.3203,-0.00016048,-2.842e-05,0.0,0 STARLINK-4297,1 53543U 22101S   24174.80171119 -.00002842  00000-0 -16048-3 0  9992,2 53543  53.2187 349.4123 0000983 106.7897 253.3203 15.08859685101962,6917.82,95.436,540.365,539.005,0.0
53543.0,STARLINK-4297,PAYLOAD,2024-06-23 11:08:20,15.08840378,0.0001486,53.2192,346.4483,67.7988,292.3162,-6.3245e-05,-1.294e-05,0.0,0 STARLINK-4297,1 53543U 22101S   24175.46412710 -.00001294  00000-0 -63245-4 0  9992,2 53543  53.2192 346.4483 0001486  67.7988 292.3162 15.08840378102068,6917.879,95.438,540.772,538.716,0.0
53543.0,STARLINK-4297,PAYLOAD,2024-06-23 19:05:15,15.08844422,0.0001131,53.2189,344.9594,88.2082,271.9039,-6.0998e-05,-1.259e-05,0.0,0 STARLINK-4297,1 53543U 22101S   24175.79532182 -.00001259  00000-0 -60998-4 0  9997,2 53543  53.2189 344.9594 0001131  88.2082 271.9039 15.08844422102802,6917.867,95.437,540.514,538.949,0.0
53543.0,STARLINK-4297,PAYLOAD,2024-06-24 10:59:07,15.08839129,0.0001266,53.2189,341.9868,89.4097,270.704,4.9591e-05,5.01e-06,0.0,0 STARLINK-4297,1 53543U 22101S   24176.45772278  .00000501  00000-0  49591-4 0  9996,2 53543  53.2189 341.9868 0001266  89.4097 270.7040 15.08839129102909,6917.883,95.438,540.624,538.872,0.0
53543.0,STARLINK-4297,PAYLOAD,2024-06-24 17:20:39,15.08841897,0.0001404,53.2184,340.7988,65.5018,294.612,9.2109e-05,1.178e-05,0.0,0 STARLINK-4297,1 53543U 22101S   24176.72268090  .00001178  00000-0  92109-4 0  9992,2 53543  53.2184 340.7988 0001404  65.5018 294.6120 15.08841897102253,6917.875,95.437,540.711,538.768,0.0
53543.0,STARLINK-4297,PAYLOAD,2024-06-25 14:00:40,15.08839872,0.0001204,53.2179,336.9321,72.5634,287.549,8.9446e-05,1.136e-05,0.0,0 STARLINK-4297,1 53543U 22101S   24177.58380224  .00001136  00000-0  89446-4 0  9995,2 53543  53.2179 336.9321 0001204  72.5634 287.5490 15.08839872103077,6917.881,95.438,540.579,538.913,0.0
53543.0,STARLINK-4297,PAYLOAD,2024-06-25 17:11:26,15.08841272,0.0001262,53.2181,336.3376,70.1196,289.9932,0.00010028,1.308e-05,0.0,0 STARLINK-4297,1 53543U 22101S   24177.71628142  .00001308  00000-0  10028-3 0  9994,2 53543  53.2181 336.3376 0001262  70.1196 289.9932 15.08841272103091,6917.877,95.437,540.615,538.868,0.0
53543.0,STARLINK-4297,PAYLOAD,2024-06-27 16:53:00,15.08841559,0.0001234,53.2186,327.4173,99.043,261.0702,4.6041e-05,4.45e-06,0.0,0 STARLINK-4297,1 53543U 22101S   24179.70348171  .00000445  00000-0  46041-4 0  9992,2 53543  53.2186 327.4173 0001234  99.0430 261.0702 15.08841559102703,6917.876,95.437,540.594,538.887,0.0
53543.0,STARLINK-4297,PAYLOAD,2024-06-28 13:33:01,15.08840563,0.0001025,53.2166,323.5478,78.7295,281.3813,7.3223e-05,8.78e-06,0.0,0 STARLINK-4297,1 53543U 22101S   24180.56460283  .00000878  00000-0  73223-4 0  9999,2 53543  53.2166 323.5478 0001025  78.7295 281.3813 15.08840563103520,6917.879,95.438,540.453,539.035,0.0
53543.0,STARLINK-4297,PAYLOAD,2024-06-28 16:43:46,15.08858406,0.0001038,53.217,322.9535,88.6177,271.4934,0.00022678,3.325e-05,0.0,0 STARLINK-4297,1 53543U 22101S   24180.69706680  .00003325  00000-0  22678-3 0  9994,2 53543  53.2170 322.9535 0001038  88.6177 271.4934 15.08858406102859,6917.824,95.436,540.407,538.971,0.0
53543.0,STARLINK-4297,PAYLOAD,2024-06-29 02:16:06,15.08849875,0.0001431,53.2167,321.1689,63.4839,296.6299,0.00013191,1.813e-05,0.0,0 STARLINK-4297,1 53543U 22101S   24181.09451393  .00001813  00000-0  13191-3 0  9997,2 53543  53.2167 321.1689 0001431  63.4839 296.6299 15.08849875102919,6917.85,95.437,540.705,538.725,0.0
